[{"OBJECT_NAME":"EOSSAT-1","OBJECT_ID":"2023-001AW","EPOCH":"2026-03-09T17:40:07.010400","MEAN_MOTION":15.32339828,"ECCENTRICITY":0.00112629,"INCLINATION":97.3357,"RA_OF_ASC_NODE":130.2294,"ARG_OF_PERICENTER":110.3168,"MEAN_ANOMALY":249.9285,"EPHEMERIS_TYPE":0,"CLASSIFICATION_TYPE":"U","NORAD_CAT_ID":55053,"ELEMENT_SET_NO":999,"REV_AT_EPOCH":17668,"BSTAR":0.00024844399,"MEAN_MOTION_DOT":7.695e-5,"MEAN_MOTION_DDOT":0},{"OBJECT_NAME":"STARLINK-31251","OBJECT_ID":"2024-017L","EPOCH":"2026-03-09T16:07:53.904288","MEAN_MOTION":15.30189076,"ECCENTRICITY":9.413e-5,"INCLINATION":53.1599,"RA_OF_ASC_NODE":204.3899,"ARG_OF_PERICENTER":77.6945,"MEAN_ANOMALY":282.4161,"EPHEMERIS_TYPE":0,"CLASSIFICATION_TYPE":"U","NORAD_CAT_ID":58836,"ELEMENT_SET_NO":999,"REV_AT_EPOCH":12016,"BSTAR":1.8285236e-5,"MEAN_MOTION_DOT":1.82e-6,"MEAN_MOTION_DDOT":0}]
